{
  "norad_id": 57294,
  "name": "STARLINK-30235",
  "history": [
    {
      "epoch": "2026-03-28T08:42:31.424544",
      "apogee_km": 486.24293701980605,
      "perigee_km": 484.8550997068942,
      "latitude_deg": 35.62871613400518,
      "longitude_deg": -55.76508383988403,
      "semi_major_axis_km": 6863.68601836335,
      "eccentricity": 0.0001011,
      "inclination_deg": 43.0031,
      "raan_deg": 117.6856,
      "arg_perigee_deg": 268.4966,
      "mean_anomaly_deg": 91.577,
      "mean_motion_rev_day": 15.26745503
    }
  ]
}